sat07228
1 07228U 74013B   20046.94474191  .00000036  00000-0  22439-4 0  9998
2 07228  97.8126  28.3329 0108151 312.2190  46.9861 14.41840797384256
